H1 CPF  1  HTS 2022  2 23 12  5541 larets           NONE
H2  0304206 5557    27944 2022 02 23  0  0  0 2022 02 28  0  0  0   180 1 1  0 0 0
H5  0.0560 
H9 
10 0 59637  20520.00000  0   -4109513.745    5215635.138    2408206.943
10 0 59637  20700.00000  0   -4081048.588    5656358.904    1115190.551
10 0 59637  20880.00000  0   -3895176.487    5888336.169    -218722.349
10 0 59637  21060.00000  0   -3564284.900    5899116.189   -1544611.177
10 0 59637  21240.00000  0   -3106311.614    5684783.579   -2813857.147
10 0 59637  21420.00000  0   -2543838.626    5250219.620   -3979978.042
10 0 59637  21600.00000  0   -1903007.756    4608992.129   -5000359.533
10 0 59637  21780.00000  0   -1212317.408    3782887.055   -5837810.684
10 0 59637  21960.00000  0    -501363.104    2801118.224   -6461893.369
10 0 59637  22140.00000  0     200424.231    1699247.323   -6849986.699
10 0 59637  22320.00000  0     864984.074     517868.499   -6988055.212
10 0 59637  22500.00000  0    1466733.414    -698891.114   -6871118.406
10 0 59637  22680.00000  0    1983539.782   -1905009.145   -6503411.957
10 0 59637  22860.00000  0    2397528.263   -3054288.457   -5898243.972
10 0 59637  23040.00000  0    2695703.932   -4102115.796   -5077554.879
10 0 59637  23220.00000  0    2870368.045   -5007208.071   -4071169.971
10 0 59637  23400.00000  0    2919307.010   -5733266.125   -2915758.728
10 0 59637  23580.00000  0    2845748.060   -6250479.075   -1653530.721
10 0 59637  23760.00000  0    2658080.378   -6536802.985    -330694.807
10 0 59637  23940.00000  0    2369346.900   -6578940.084    1004262.895
10 0 59637  24120.00000  0    1996530.772   -6372959.546    2302403.127
10 0 59637  24300.00000  0    1559674.945   -5924526.371    3516180.621
10 0 59637  24480.00000  0    1080881.209   -5248723.890    4601221.634
10 0 59637  24660.00000  0     583245.506   -4369493.932    5517955.377
10 0 59637  24840.00000  0      89782.910   -3318727.048    6233043.112
10 0 59637  25020.00000  0    -377604.169   -2135045.222    6720549.955
10 0 59637  25200.00000  0    -799068.807    -862348.531    6962829.381
10 0 59637  25380.00000  0   -1157639.129     451818.153    6951118.565
10 0 59637  25560.00000  0   -1439888.412    1758031.897    6685832.383
10 0 59637  25740.00000  0   -1636432.911    3006831.948    6176549.943
10 0 59637  25920.00000  0   -1742243.678    4150578.411    5441696.933
10 0 59637  26100.00000  0   -1756762.613    5145273.414    4507927.185
10 0 59637  26280.00000  0   -1683818.835    5952284.896    3409208.438
10 0 59637  26460.00000  0   -1531346.757    6539899.556    2185625.202
10 0 59637  26640.00000  0   -1310917.201    6884634.071     881930.526
10 0 59637  26820.00000  0   -1037093.950    6972234.226    -454106.021
10 0 59637  27000.00000  0    -726650.330    6798306.095   -1773488.096
10 0 59637  27180.00000  0    -397684.898    6368530.937   -3027848.705
10 0 59637  27360.00000  0     -68688.768    5698448.137   -4171268.308
10 0 59637  27540.00000  0     242387.227    4812839.487   -5161977.761
10 0 59637  27720.00000  0     519021.106    3744746.921   -5963882.762
10 0 59637  27900.00000  0     746919.650    2534174.821   -6547852.061
10 0 59637  28080.00000  0     914691.386    1226542.410   -6892728.414
10 0 59637  28260.00000  0    1014367.595    -129040.343   -6986044.367
10 0 59637  28440.00000  0    1041753.074   -1481614.819   -6824437.009
10 0 59637  28620.00000  0     996595.001   -2780271.224   -6413753.145
10 0 59637  28800.00000  0     882568.411   -3976043.106   -5768857.022
10 0 59637  28980.00000  0     707075.543   -5023756.173   -4913135.742
10 0 59637  29160.00000  0     480867.113   -5883759.086   -3877699.650
10 0 59637  29340.00000  0     217497.095   -6523474.296   -2700295.826
10 0 59637  29520.00000  0     -67367.368   -6918698.257   -1423955.701
10 0 59637  29700.00000  0    -356749.868   -7054585.825     -95417.125
10 0 59637  29880.00000  0    -633244.129   -6926256.418    1236620.084
10 0 59637  30060.00000  0    -879923.213   -6538988.826    2523325.917
10 0 59637  30240.00000  0   -1081229.831   -5907991.041    3717581.689
10 0 59637  30420.00000  0   -1223797.047   -5057752.688    4775741.906
10 0 59637  30600.00000  0   -1297160.403   -4021027.794    5659233.252
10 0 59637  30780.00000  0   -1294327.545   -2837509.859    6335940.944
10 0 59637  30960.00000  0   -1212178.807   -1552258.199    6781332.399
10 0 59637  31140.00000  0   -1051684.179    -213960.044    6979291.612
10 0 59637  31320.00000  0    -817935.900    1126912.203    6922660.813
10 0 59637  31500.00000  0    -519990.139    2419988.407    6613479.525
10 0 59637  31680.00000  0    -170520.033    3616875.042    6062918.192
10 0 59637  31860.00000  0     214705.198    4672958.941    5290906.704
10 0 59637  32040.00000  0     617499.124    5549085.557    4325462.203
10 0 59637  32220.00000  0    1018072.640    6213051.533    3201721.654
10 0 59637  32400.00000  0    1395952.224    6640851.967    1960705.293
10 0 59637  32580.00000  0    1730966.287    6817624.519     647822.728
10 0 59637  32760.00000  0    2004242.840    6738215.990    -688814.269
10 0 59637  32940.00000  0    2199169.149    6407348.078   -2000196.145
10 0 59637  33120.00000  0    2302262.091    5839374.541   -3238259.954
10 0 59637  33300.00000  0    2303904.888    5057639.494   -4357695.438
10 0 59637  33480.00000  0    2198909.578    4093466.230   -5317628.567
10 0 59637  33660.00000  0    1986877.390    2984840.110   -6083106.314
10 0 59637  33840.00000  0    1672345.395    1774859.752   -6626336.298
10 0 59637  34020.00000  0    1264716.148     510028.553   -6927645.832
10 0 59637  34200.00000  0     777977.551    -761539.758   -6976145.971
10 0 59637  34380.00000  0     230219.018   -1991941.661   -6770091.139
10 0 59637  34560.00000  0    -357035.267   -3135266.626   -6316932.734
10 0 59637  34740.00000  0    -959658.811   -4149297.998   -5633075.161
10 0 59637  34920.00000  0   -1551895.383   -4997080.029   -4743324.738
10 0 59637  35100.00000  0   -2107440.140   -5648297.787   -3680042.116
10 0 59637  35280.00000  0   -2600590.453   -6080414.036   -2482005.953
10 0 59637  35460.00000  0   -3007414.139   -6279507.897   -1193018.491
10 0 59637  35640.00000  0   -3306880.133   -6240772.996     139705.148
10 0 59637  35820.00000  0   -3481890.468   -5968636.898    1467304.783
10 0 59637  36000.00000  0   -3520155.795   -5476489.888    2741118.019
10 0 59637  36180.00000  0   -3414867.496   -4786037.193    3914512.036
10 0 59637  36360.00000  0   -3165132.376   -3926314.945    4944619.450
10 0 59637  36540.00000  0   -2776152.581   -2932425.151    5793906.379
10 0 59637  36720.00000  0   -2259145.290   -1844059.651    6431513.089
10 0 59637  36900.00000  0   -1631010.332    -703889.483    6834331.601
10 0 59637  37080.00000  0    -913761.772     444119.195    6987793.818
10 0 59637  37260.00000  0    -133752.383    1556390.548    6886353.047
10 0 59637  37440.00000  0     679286.747    2591375.164    6533670.096
10 0 59637  37620.00000  0    1493366.984    3511089.268    5942492.035
10 0 59637  37800.00000  0    2275484.958    4282508.058    5134228.312
10 0 59637  37980.00000  0    2992950.698    4878773.763    4138226.978
10 0 59637  38160.00000  0    3614753.045    5280168.072    2990757.379
10 0 59637  38340.00000  0    4112908.190    5474813.686    1733724.977
10 0 59637  38520.00000  0    4463726.550    5459059.258     413139.637
10 0 59637  38700.00000  0    4648925.174    5237523.075    -922594.769
10 0 59637  38880.00000  0    4656529.963    4822783.549   -2224501.335
10 0 59637  39060.00000  0    4481518.386    4234735.728   -3444874.145
10 0 59637  39240.00000  0    4126166.007    3499649.188   -4539067.713
10 0 59637  39420.00000  0    3600080.441    2648977.024   -5467147.402
10 0 59637  39600.00000  0    2919930.097    1717983.309   -6195336.292
10 0 59637  39780.00000  0    2108882.856     744258.172   -6697208.431
10 0 59637  39960.00000  0    1195787.424    -233808.480   -6954594.715
10 0 59637  40140.00000  0     214135.257   -1178533.454   -6958194.985
10 0 59637  40320.00000  0    -799167.535   -2054378.187   -6707884.119
10 0 59637  40500.00000  0   -1805173.178   -2829269.201   -6212714.664
10 0 59637  40680.00000  0   -2764373.564   -3475769.042   -5490615.908
10 0 59637  40860.00000  0   -3638242.851   -3972059.112   -4567792.670
10 0 59637  41040.00000  0   -4390795.548   -4302703.576   -3477825.934
10 0 59637  41220.00000  0   -4990092.052   -4459156.555   -2260487.970
10 0 59637  41400.00000  0   -5409624.363   -4439987.424    -960304.611
10 0 59637  41580.00000  0   -5629510.782   -4250807.123     375087.795
10 0 59637  41760.00000  0   -5637435.260   -3903895.942    1696726.414
10 0 59637  41940.00000  0   -5429274.361   -3417545.735    2956171.527
10 0 59637  42120.00000  0   -5009375.805   -2815149.912    4107328.395
10 0 59637  42300.00000  0   -4390480.615   -2124096.110    5108160.250
10 0 59637  42480.00000  0   -3593297.369   -1374520.712    5922218.181
10 0 59637  42660.00000  0   -2645764.151    -597995.204    6519936.722
10 0 59637  42840.00000  0   -1582028.799     173801.921    6879664.512
10 0 59637  43020.00000  0    -441192.303     910367.138    6988394.904
10 0 59637  43200.00000  0     734127.382    1583559.673    6842197.846
10 0 59637  43380.00000  0    1899371.713    2168664.851    6446350.732
10 0 59637  43560.00000  0    3009712.135    2645296.062    5815163.269
10 0 59637  43740.00000  0    4021765.213    2998108.989    4971502.615
10 0 59637  43920.00000  0    4895296.874    3217307.221    3946016.569
10 0 59637  44100.00000  0    5594852.440    3298918.972    2776070.418
10 0 59637  44280.00000  0    6091246.029    3244826.669    1504409.720
10 0 59637  44460.00000  0    6362824.557    3062545.220     177596.260
10 0 59637  44640.00000  0    6396444.530    2764755.139   -1155729.150
10 0 59637  44820.00000  0    6188098.070    2368607.081   -2446677.923
99
